STARLINK-5697
1 55589U 23020W   26133.95177673  .00000673  00000+0  33985-4 0  9996
2 55589  43.0073 356.6460 0001580 264.9990  95.0682 15.27579619178899
STARLINK-5703
1 55593U 23020AA  26133.92351527 -.00001121  00000+0 -31220-4 0  9991
2 55593  43.0046 356.4400 0001149 262.5594  97.5128 15.27562518178893
STARLINK-5727
1 55587U 23020U   26133.96076452  .00000086  00000+0  12669-4 0  9992
2 55587  43.0033 356.6388 0001261 264.1491  95.9217 15.27574699178892
STARLINK-5728
1 55588U 23020V   26133.96334301  .00000581  00000+0  30647-4 0  9999
2 55588  43.0029 356.7352 0001461 259.4903 100.5784 15.27576131178892
STARLINK-5729
1 55596U 23020AD  26134.00688430  .00000954  00000+0  44186-4 0  9996
2 55596  43.0053 356.2031 0001336 274.7831  85.2869 15.27571767178903
STARLINK-5732
1 55572U 23020D   26133.88204753 -.00000202  00000+0  21757-5 0  9994
2 55572  43.0026   0.4039 0001277 274.8063  85.2643 15.27580816178843
STARLINK-5736
1 55584U 23020R   26133.98390420 -.00000295  00000+0 -12082-5 0  9999
2 55584  43.0042 356.8876 0000904 261.3597  98.7152 15.27576784178898
STARLINK-5737
1 55570U 23020B   26133.95691559  .00000637  00000+0  32663-4 0  9992
2 55570  43.0051 356.6868 0001291 252.8874 107.1837 15.27582994178890
STARLINK-5738
1 55573U 23020E   26133.94358011 -.00000286  00000+0 -86161-6 0  9993
2 55573  43.0030   0.0010 0001480 264.4583  95.6100 15.27573254178854
STARLINK-5739
1 55571U 23020C   26133.88461587  .00001014  00000+0  46369-4 0  9999
2 55571  43.0046   0.4192 0001516 274.8447  85.2231 15.27577144178849
STARLINK-5741
1 55582U 23020P   26133.90697106 -.00000184  00000+0  28362-5 0  9994
2 55582  43.0036 345.9085 0001160 269.0701  91.0018 15.27575568179018
STARLINK-5742
1 55583U 23020Q   26133.92479987 -.00001787  00000+0 -55422-4 0  9999
2 55583  43.0063 356.4490 0001527 261.1164  98.9514 15.27581927178897
STARLINK-5743
1 55597U 23020AE  26134.27717406  .00000986  00000+0  46457-4 0  9990
2 55597  43.0030 343.5294 0001217 273.2499  86.8213 15.26735561179073
STARLINK-5744
1 55601U 23020AJ  26133.98519152 -.00000326  00000+0 -23283-5 0  9994
2 55601  43.0026 356.8892 0001213 276.7217  83.3496 15.27573957178891
STARLINK-5745
1 55575U 23020G   26134.08385978  .00000682  00000+0  35918-4 0  9993
2 55575  43.0051 359.3331 0001356 269.7210  90.3485 15.25911343178875
STARLINK-5747
1 55574U 23020F   26133.97223984  .00000182  00000+0  16818-4 0  9990
2 55574  43.0055   0.2132 0001487 266.3203  93.7478 15.25909054178852
STARLINK-5750
1 55594U 23020AB  26133.93121807 -.00000142  00000+0  43579-5 0  9991
2 55594  43.0054 356.4961 0001345 262.7002  97.3697 15.27576926178896
STARLINK-5751
1 55576U 23020H   26134.22797772  .00000033  00000+0  10708-4 0  9999
2 55576  43.0027 329.2866 0001104 268.8840  91.1885 15.27578153179232
STARLINK-5752
1 55577U 23020J   26134.29538198  .00002780  00000+0  11046-3 0  9998
2 55577  42.9997 354.8516 0001443 251.1220 108.9475 15.27596291178948
STARLINK-5753
1 55581U 23020N   26133.69438743 -.00000244  00000+0  67184-6 0  9992
2 55581  43.0046   4.9770 0001350 268.5061  91.5636 15.27576216178779
STARLINK-5754
1 55579U 23020L   26134.01331668 -.00000587  00000+0 -11795-4 0  9990
2 55579  43.0054 356.2484 0000918 253.4370 106.6381 15.27582740178904
STARLINK-5755
1 55600U 23020AH  26133.89925756  .00000008  00000+0  98117-5 0  9997
2 55600  43.0046 345.8440 0001122 268.2306  91.8418 15.27575257179011
STARLINK-5756
1 55598U 23020AF  26133.91981617 -.00001608  00000+0 -48919-4 0  9997
2 55598  43.0047 345.9770 0002120 269.8339  90.2269 15.27569040179017
STARLINK-5757
1 55580U 23020M   26134.23825921  .00001411  00000+0  60777-4 0  9995
2 55580  43.0032 329.3634 0001254 263.4810  96.5899 15.27589940179231
STARLINK-5759
1 55592U 23020Z   26133.99275422 -.00000610  00000+0 -12656-4 0  9990
2 55592  43.0047 356.0976 0001028 268.3339  91.7395 15.27574512178905
STARLINK-5760
1 55591U 23020Y   26133.63255209  .00002665  00000+0  10631-3 0  9991
2 55591  43.0029 358.5530 0001399 264.8436  95.2256 15.27590964178844
STARLINK-5761
1 55599U 23020AG  26133.92368654  .00000366  00000+0  22841-4 0  9993
2 55599  43.0061 346.0060 0001778 258.5977 101.4675 15.27564325179016
STARLINK-5762
1 55590U 23020X   26134.01074482 -.00001660  00000+0 -50807-4 0  9991
2 55590  43.0063 356.2353 0001647 263.0020  97.0644 15.27570331178909
STARLINK-5767
1 55586U 23020T   26133.96721695 -.00001398  00000+0 -41318-4 0  9999
2 55586  43.0024 356.7651 0001128 272.4789  87.5933 15.27565059178891
STARLINK-5769
1 55585U 23020S   26133.60444885 -.00000042  00000+0  80137-5 0  9999
2 55585  43.0040 347.9377 0001856 256.8013 103.2631 15.27578992178968
