OBJECT_NAME,OBJECT_ID,EPOCH,MEAN_MOTION,ECCENTRICITY,INCLINATION,RA_OF_ASC_NODE,ARG_OF_PERICENTER,MEAN_ANOMALY,EPHEMERIS_TYPE,CLASSIFICATION_TYPE,NORAD_CAT_ID,ELEMENT_SET_NO,REV_AT_EPOCH,BSTAR,MEAN_MOTION_DOT,MEAN_MOTION_DDOT
STARLINK-5737,2023-020B,2026-05-13T22:57:57.506976,15.27582994,.00012913,43.0051,356.6868,252.8874,107.1837,0,U,55570,999,17889,.32663458E-4,.637E-5,0
STARLINK-5739,2023-020C,2026-05-13T21:13:50.811168,15.27577144,.0001516,43.0046,0.4192,274.8447,85.2231,0,U,55571,999,17884,.46369E-4,.1014E-4,0
STARLINK-5732,2023-020D,2026-05-13T21:10:08.906592,15.27580816,.0001277,43.0026,0.4039,274.8063,85.2643,0,U,55572,999,17884,.21757E-5,-.202E-5,0
STARLINK-5738,2023-020E,2026-05-13T22:38:45.321504,15.27573254,.00014809,43.0030,0.0010,264.4583,95.6100,0,U,55573,999,17885,-.861608E-6,-.286E-5,0
STARLINK-5747,2023-020F,2026-05-13T23:20:01.522176,15.25909054,.00014876,43.0055,0.2132,266.3203,93.7478,0,U,55574,999,17885,.16818488E-4,.182E-5,0
STARLINK-5745,2023-020G,2026-05-14T02:00:45.484992,15.25911343,.00013564,43.0051,359.3331,269.7210,90.3485,0,U,55575,999,17887,.35918028E-4,.682E-5,0
STARLINK-5751,2023-020H,2026-05-14T05:28:17.275008,15.27578153,.0001104,43.0027,329.2866,268.8840,91.1885,0,U,55576,999,17923,.10707739E-4,.33E-6,0
STARLINK-5752,2023-020J,2026-05-14T07:05:21.003072,15.27596291,.00014436,42.9997,354.8516,251.1220,108.9475,0,U,55577,999,17894,.11045555E-3,.278E-4,0
STARLINK-5754,2023-020L,2026-05-14T00:19:10.561152,15.27582740,.00009184,43.0054,356.2484,253.4370,106.6381,0,U,55579,999,17890,-.11795449E-4,-.587E-5,0
STARLINK-5757,2023-020M,2026-05-14T05:43:05.595744,15.27589940,.00012548,43.0032,329.3634,263.4810,96.5899,0,U,55580,999,17923,.60776777E-4,.1411E-4,0
STARLINK-5753,2023-020N,2026-05-13T16:39:55.073952,15.27576216,.00013502,43.0046,4.9770,268.5061,91.5636,0,U,55581,999,17877,.671838E-6,-.244E-5,0
STARLINK-5741,2023-020P,2026-05-13T21:46:02.299584,15.27575568,.000116,43.0036,345.9085,269.0701,91.0018,0,U,55582,999,17901,.28362E-5,-.184E-5,0
STARLINK-5742,2023-020Q,2026-05-13T22:11:42.708768,15.27581927,.0001527,43.0063,356.4490,261.1164,98.9514,0,U,55583,999,17889,-.55422E-4,-.1787E-4,0
STARLINK-5736,2023-020R,2026-05-13T23:36:49.322880,15.27576784,.00009044,43.0042,356.8876,261.3597,98.7152,0,U,55584,999,17889,-.1208219E-5,-.295E-5,0
STARLINK-5769,2023-020S,2026-05-13T14:30:24.380640,15.27578992,.00018561,43.0040,347.9377,256.8013,103.2631,0,U,55585,999,17896,.8013726E-5,-.42E-6,0
STARLINK-5767,2023-020T,2026-05-13T23:12:47.544480,15.27565059,.00011281,43.0024,356.7651,272.4789,87.5933,0,U,55586,999,17889,-.41317639E-4,-.1398E-4,0
STARLINK-5727,2023-020U,2026-05-13T23:03:30.054528,15.27574699,.00012617,43.0033,356.6388,264.1491,95.9217,0,U,55587,999,17889,.12668948E-4,.86E-6,0
STARLINK-5728,2023-020V,2026-05-13T23:07:12.836064,15.27576131,.00014616,43.0029,356.7352,259.4903,100.5784,0,U,55588,999,17889,.30647118E-4,.581E-5,0
STARLINK-5697,2023-020W,2026-05-13T22:50:33.509472,15.27579619,.00015802,43.0073,356.6460,264.9990,95.0682,0,U,55589,999,17889,.33984547E-4,.673E-5,0
STARLINK-5762,2023-020X,2026-05-14T00:15:28.352448,15.27570331,.00016475,43.0063,356.2353,263.0020,97.0644,0,U,55590,999,17890,-.50806785E-4,-.166E-4,0
STARLINK-5760,2023-020Y,2026-05-13T15:10:52.500576,15.27590964,.00013993,43.0029,358.5530,264.8436,95.2256,0,U,55591,999,17884,.10631229E-3,.2665E-4,0
STARLINK-5759,2023-020Z,2026-05-13T23:49:33.964608,15.27574512,.00010286,43.0047,356.0976,268.3339,91.7395,0,U,55592,999,17890,-.12655847E-4,-.61E-5,0
STARLINK-5703,2023-020AA,2026-05-13T22:09:51.719328,15.27562518,.0001149,43.0046,356.4400,262.5594,97.5128,0,U,55593,999,17889,-.3122E-4,-.1121E-4,0
STARLINK-5750,2023-020AB,2026-05-13T22:20:57.241248,15.27576926,.00013458,43.0054,356.4961,262.7002,97.3697,0,U,55594,999,17889,.4357905E-5,-.142E-5,0
STARLINK-5729,2023-020AD,2026-05-14T00:09:54.803520,15.27571767,.00013365,43.0053,356.2031,274.7831,85.2869,0,U,55596,999,17890,.44185913E-4,.954E-5,0
STARLINK-5743,2023-020AE,2026-05-14T06:39:07.838784,15.26735561,.00012178,43.0030,343.5294,273.2499,86.8213,0,U,55597,999,17907,.46457223E-4,.986E-5,0
STARLINK-5756,2023-020AF,2026-05-13T22:04:32.117088,15.27569040,.000212,43.0047,345.9770,269.8339,90.2269,0,U,55598,999,17901,-.48919E-4,-.1608E-4,0
STARLINK-5761,2023-020AG,2026-05-13T22:10:06.517056,15.27564325,.00017785,43.0061,346.0060,258.5977,101.4675,0,U,55599,999,17901,.22841385E-4,.366E-5,0
STARLINK-5755,2023-020AH,2026-05-13T21:34:55.853184,15.27575257,.0001122,43.0046,345.8440,268.2306,91.8418,0,U,55600,999,17901,.98117E-5,.8E-7,0
STARLINK-5744,2023-020AJ,2026-05-13T23:38:40.547328,15.27573957,.00012137,43.0026,356.8892,276.7217,83.3496,0,U,55601,999,17889,-.2328284E-5,-.326E-5,0
